[{"OBJECT_NAME":"GAOFEN DUOMO (GFDM)","OBJECT_ID":"2020-042A","EPOCH":"2026-04-27T04:32:25.202976","MEAN_MOTION":14.7680691,"ECCENTRICITY":0.000968,"INCLINATION":97.7783,"RA_OF_ASC_NODE":178.9225,"ARG_OF_PERICENTER":234.2045,"MEAN_ANOMALY":125.8266,"EPHEMERIS_TYPE":0,"CLASSIFICATION_TYPE":"U","NORAD_CAT_ID":45856,"ELEMENT_SET_NO":999,"REV_AT_EPOCH":31348,"BSTAR":7.6678e-5,"MEAN_MOTION_DOT":4.89e-6,"MEAN_MOTION_DDOT":0},{"OBJECT_NAME":"ZIYUAN 3-03 (ZY 3-03)","OBJECT_ID":"2020-051A","EPOCH":"2026-04-27T05:05:18.737088","MEAN_MOTION":15.21343142,"ECCENTRICITY":0.0006891,"INCLINATION":97.2859,"RA_OF_ASC_NODE":186.5751,"ARG_OF_PERICENTER":120.0533,"MEAN_ANOMALY":240.1387,"EPHEMERIS_TYPE":0,"CLASSIFICATION_TYPE":"U","NORAD_CAT_ID":45939,"ELEMENT_SET_NO":999,"REV_AT_EPOCH":31959,"BSTAR":0.00019666,"MEAN_MOTION_DOT":4.34e-5,"MEAN_MOTION_DDOT":0},{"OBJECT_NAME":"NEMO-HD","OBJECT_ID":"2020-061F","EPOCH":"2026-04-27T04:35:53.643840","MEAN_MOTION":15.43554338,"ECCENTRICITY":0.0001513,"INCLINATION":97.1962,"RA_OF_ASC_NODE":179.689,"ARG_OF_PERICENTER":132.6948,"MEAN_ANOMALY":227.4428,"EPHEMERIS_TYPE":0,"CLASSIFICATION_TYPE":"U","NORAD_CAT_ID":46277,"ELEMENT_SET_NO":999,"REV_AT_EPOCH":31411,"BSTAR":0.00026799,"MEAN_MOTION_DOT":0.00011951,"MEAN_MOTION_DDOT":0},{"OBJECT_NAME":"3CAT-5A","OBJECT_ID":"2020-061W","EPOCH":"2026-04-27T03:34:24.839040","MEAN_MOTION":15.44519104,"ECCENTRICITY":6.46e-5,"INCLINATION":97.2447,"RA_OF_ASC_NODE":180.1523,"ARG_OF_PERICENTER":26.0477,"MEAN_ANOMALY":334.0804,"EPHEMERIS_TYPE":0,"CLASSIFICATION_TYPE":"U","NORAD_CAT_ID":46292,"ELEMENT_SET_NO":999,"REV_AT_EPOCH":31314,"BSTAR":0.00043123,"MEAN_MOTION_DOT":0.0001994,"MEAN_MOTION_DDOT":0},{"OBJECT_NAME":"3CAT-5B","OBJECT_ID":"2020-061X","EPOCH":"2026-04-27T02:39:30.694752","MEAN_MOTION":15.45756354,"ECCENTRICITY":7.23e-5,"INCLINATION":97.2443,"RA_OF_ASC_NODE":181,"ARG_OF_PERICENTER":3.5134,"MEAN_ANOMALY":356.612,"EPHEMERIS_TYPE":0,"CLASSIFICATION_TYPE":"U","NORAD_CAT_ID":46293,"ELEMENT_SET_NO":999,"REV_AT_EPOCH":31316,"BSTAR":0.00039119,"MEAN_MOTION_DOT":0.00018856,"MEAN_MOTION_DDOT":0},{"OBJECT_NAME":"NAPA-1","OBJECT_ID":"2020-061BA","EPOCH":"2026-04-27T04:41:42.800928","MEAN_MOTION":15.61999572,"ECCENTRICITY":0.0001879,"INCLINATION":97.2507,"RA_OF_ASC_NODE":189.9363,"ARG_OF_PERICENTER":147.1012,"MEAN_ANOMALY":213.0363,"EPHEMERIS_TYPE":0,"CLASSIFICATION_TYPE":"U","NORAD_CAT_ID":46320,"ELEMENT_SET_NO":999,"REV_AT_EPOCH":31376,"BSTAR":0.00066558,"MEAN_MOTION_DOT":0.00058242,"MEAN_MOTION_DDOT":0},{"OBJECT_NAME":"JILIN-1 GAOFEN 3B","OBJECT_ID":"2020-065A","EPOCH":"2026-04-26T11:05:46.239072","MEAN_MOTION":16.34350985,"ECCENTRICITY":0.00106436,"INCLINATION":97.1986,"RA_OF_ASC_NODE":177.393,"ARG_OF_PERICENTER":249.4308,"MEAN_ANOMALY":110.5848,"EPHEMERIS_TYPE":0,"CLASSIFICATION_TYPE":"U","NORAD_CAT_ID":46454,"ELEMENT_SET_NO":999,"REV_AT_EPOCH":31233,"BSTAR":0.00087139442,"MEAN_MOTION_DOT":0.05875672,"MEAN_MOTION_DDOT":2.402103e-6},{"OBJECT_NAME":"JILIN-1 GAOFEN 3E","OBJECT_ID":"2020-065D","EPOCH":"2026-04-27T04:29:49.700256","MEAN_MOTION":15.58273031,"ECCENTRICITY":0.001058,"INCLINATION":97.2327,"RA_OF_ASC_NODE":168.8158,"ARG_OF_PERICENTER":357.9119,"MEAN_ANOMALY":2.2092,"EPHEMERIS_TYPE":0,"CLASSIFICATION_TYPE":"U","NORAD_CAT_ID":46457,"ELEMENT_SET_NO":999,"REV_AT_EPOCH":31180,"BSTAR":0.00075316,"MEAN_MOTION_DOT":0.00057341,"MEAN_MOTION_DDOT":0},{"OBJECT_NAME":"JILIN-1 GAOFEN 3F","OBJECT_ID":"2020-065E","EPOCH":"2026-04-27T04:48:36.072000","MEAN_MOTION":15.56264213,"ECCENTRICITY":0.0011815,"INCLINATION":97.2279,"RA_OF_ASC_NODE":166.377,"ARG_OF_PERICENTER":344.5516,"MEAN_ANOMALY":15.5377,"EPHEMERIS_TYPE":0,"CLASSIFICATION_TYPE":"U","NORAD_CAT_ID":46458,"ELEMENT_SET_NO":999,"REV_AT_EPOCH":31176,"BSTAR":0.00073116,"MEAN_MOTION_DOT":0.00051648,"MEAN_MOTION_DDOT":0},{"OBJECT_NAME":"JILIN-1 GAOFEN 3G","OBJECT_ID":"2020-065F","EPOCH":"2026-04-27T04:31:17.135328","MEAN_MOTION":15.63499724,"ECCENTRICITY":0.0010666,"INCLINATION":97.2355,"RA_OF_ASC_NODE":172.4532,"ARG_OF_PERICENTER":226.1604,"MEAN_ANOMALY":133.8774,"EPHEMERIS_TYPE":0,"CLASSIFICATION_TYPE":"U","NORAD_CAT_ID":46459,"ELEMENT_SET_NO":999,"REV_AT_EPOCH":31195,"BSTAR":0.00082182,"MEAN_MOTION_DOT":0.00076627,"MEAN_MOTION_DDOT":0},{"OBJECT_NAME":"JILIN-1 GAOFEN 3H","OBJECT_ID":"2020-065G","EPOCH":"2026-04-27T03:15:15.497856","MEAN_MOTION":15.61283837,"ECCENTRICITY":0.0009021,"INCLINATION":97.2301,"RA_OF_ASC_NODE":168.9784,"ARG_OF_PERICENTER":163.0157,"MEAN_ANOMALY":197.1405,"EPHEMERIS_TYPE":0,"CLASSIFICATION_TYPE":"U","NORAD_CAT_ID":46460,"ELEMENT_SET_NO":999,"REV_AT_EPOCH":31190,"BSTAR":0.00077586,"MEAN_MOTION_DOT":0.00066247,"MEAN_MOTION_DDOT":0},{"OBJECT_NAME":"JILIN-1 GAOFEN 3J","OBJECT_ID":"2020-065J","EPOCH":"2026-04-27T03:45:10.315296","MEAN_MOTION":15.99901697,"ECCENTRICITY":0.000638,"INCLINATION":97.2254,"RA_OF_ASC_NODE":176.8156,"ARG_OF_PERICENTER":225.6434,"MEAN_ANOMALY":134.4323,"EPHEMERIS_TYPE":0,"CLASSIFICATION_TYPE":"U","NORAD_CAT_ID":46462,"ELEMENT_SET_NO":999,"REV_AT_EPOCH":31235,"BSTAR":0.0011576,"MEAN_MOTION_DOT":0.00582872,"MEAN_MOTION_DDOT":0.00015232},{"OBJECT_NAME":"HAIYANG-2C","OBJECT_ID":"2020-066A","EPOCH":"2026-04-27T04:45:02.904192","MEAN_MOTION":13.83374749,"ECCENTRICITY":0.001077,"INCLINATION":65.9995,"RA_OF_ASC_NODE":342.2372,"ARG_OF_PERICENTER":242.8725,"MEAN_ANOMALY":117.1246,"EPHEMERIS_TYPE":0,"CLASSIFICATION_TYPE":"U","NORAD_CAT_ID":46469,"ELEMENT_SET_NO":999,"REV_AT_EPOCH":28244,"BSTAR":-1.2905e-5,"MEAN_MOTION_DOT":-9.5e-7,"MEAN_MOTION_DDOT":0},{"OBJECT_NAME":"HJ-2A","OBJECT_ID":"2020-067A","EPOCH":"2026-04-25T20:23:46.079232","MEAN_MOTION":14.76541081,"ECCENTRICITY":0.00048981,"INCLINATION":97.8825,"RA_OF_ASC_NODE":195.4547,"ARG_OF_PERICENTER":79.4293,"MEAN_ANOMALY":280.7469,"EPHEMERIS_TYPE":0,"CLASSIFICATION_TYPE":"U","NORAD_CAT_ID":46478,"ELEMENT_SET_NO":999,"REV_AT_EPOCH":30053,"BSTAR":1.3716601e-5,"MEAN_MOTION_DOT":4.6e-7,"MEAN_MOTION_DDOT":0},{"OBJECT_NAME":"HJ-2B","OBJECT_ID":"2020-067B","EPOCH":"2026-04-27T04:09:42.707808","MEAN_MOTION":14.76553454,"ECCENTRICITY":0.0001339,"INCLINATION":97.8889,"RA_OF_ASC_NODE":197.7308,"ARG_OF_PERICENTER":77.9469,"MEAN_ANOMALY":282.1891,"EPHEMERIS_TYPE":0,"CLASSIFICATION_TYPE":"U","NORAD_CAT_ID":46479,"ELEMENT_SET_NO":999,"REV_AT_EPOCH":30073,"BSTAR":8.933e-5,"MEAN_MOTION_DOT":5.73e-6,"MEAN_MOTION_DDOT":0},{"OBJECT_NAME":"GONETS-M 17","OBJECT_ID":"2020-068A","EPOCH":"2026-04-27T04:10:05.220192","MEAN_MOTION":12.42870657,"ECCENTRICITY":0.0022704,"INCLINATION":82.5027,"RA_OF_ASC_NODE":19.2353,"ARG_OF_PERICENTER":144.0253,"MEAN_ANOMALY":216.236,"EPHEMERIS_TYPE":0,"CLASSIFICATION_TYPE":"U","NORAD_CAT_ID":46486,"ELEMENT_SET_NO":999,"REV_AT_EPOCH":25282,"BSTAR":-0.00082244,"MEAN_MOTION_DOT":-1.04e-6,"MEAN_MOTION_DDOT":0},{"OBJECT_NAME":"GONETS-M 18","OBJECT_ID":"2020-068B","EPOCH":"2026-04-27T05:13:39.321408","MEAN_MOTION":12.4287032,"ECCENTRICITY":0.0020071,"INCLINATION":82.4981,"RA_OF_ASC_NODE":18.3454,"ARG_OF_PERICENTER":140.0122,"MEAN_ANOMALY":220.244,"EPHEMERIS_TYPE":0,"CLASSIFICATION_TYPE":"U","NORAD_CAT_ID":46487,"ELEMENT_SET_NO":999,"REV_AT_EPOCH":25281,"BSTAR":0.00068891,"MEAN_MOTION_DOT":1.05e-6,"MEAN_MOTION_DDOT":0},{"OBJECT_NAME":"GONETS-M 19","OBJECT_ID":"2020-068C","EPOCH":"2026-04-27T04:39:23.334048","MEAN_MOTION":12.42890337,"ECCENTRICITY":0.0013518,"INCLINATION":82.5006,"RA_OF_ASC_NODE":18.8012,"ARG_OF_PERICENTER":153.5116,"MEAN_ANOMALY":206.6657,"EPHEMERIS_TYPE":0,"CLASSIFICATION_TYPE":"U","NORAD_CAT_ID":46488,"ELEMENT_SET_NO":999,"REV_AT_EPOCH":25291,"BSTAR":-0.00024878,"MEAN_MOTION_DOT":-2.4e-7,"MEAN_MOTION_DDOT":0},{"OBJECT_NAME":"DEKART","OBJECT_ID":"2020-068H","EPOCH":"2026-04-27T03:45:58.290624","MEAN_MOTION":15.36139892,"ECCENTRICITY":0.0011227,"INCLINATION":97.8764,"RA_OF_ASC_NODE":122.8198,"ARG_OF_PERICENTER":104.5627,"MEAN_ANOMALY":255.6862,"EPHEMERIS_TYPE":0,"CLASSIFICATION_TYPE":"U","NORAD_CAT_ID":46493,"ELEMENT_SET_NO":999,"REV_AT_EPOCH":30793,"BSTAR":0.00040137,"MEAN_MOTION_DOT":0.00014081,"MEAN_MOTION_DDOT":0},{"OBJECT_NAME":"NORBI","OBJECT_ID":"2020-068J","EPOCH":"2026-04-27T03:11:41.899776","MEAN_MOTION":15.462596,"ECCENTRICITY":0.000903,"INCLINATION":97.8662,"RA_OF_ASC_NODE":128.6837,"ARG_OF_PERICENTER":87.7297,"MEAN_ANOMALY":272.4985,"EPHEMERIS_TYPE":0,"CLASSIFICATION_TYPE":"U","NORAD_CAT_ID":46494,"ELEMENT_SET_NO":999,"REV_AT_EPOCH":30831,"BSTAR":0.00049418,"MEAN_MOTION_DOT":0.00024302,"MEAN_MOTION_DDOT":0},{"OBJECT_NAME":"SALSAT","OBJECT_ID":"2020-068K","EPOCH":"2026-04-26T23:34:06.648096","MEAN_MOTION":15.29023966,"ECCENTRICITY":0.0011556,"INCLINATION":97.8863,"RA_OF_ASC_NODE":116.9611,"ARG_OF_PERICENTER":118.086,"MEAN_ANOMALY":242.1548,"EPHEMERIS_TYPE":0,"CLASSIFICATION_TYPE":"U","NORAD_CAT_ID":46495,"ELEMENT_SET_NO":999,"REV_AT_EPOCH":30753,"BSTAR":0.00030795,"MEAN_MOTION_DOT":8.614e-5,"MEAN_MOTION_DDOT":0},{"OBJECT_NAME":"ICEYE-X6","OBJECT_ID":"2020-068M","EPOCH":"2026-04-27T05:48:07.382304","MEAN_MOTION":15.04243647,"ECCENTRICITY":0.0005498,"INCLINATION":98.0977,"RA_OF_ASC_NODE":108.494,"ARG_OF_PERICENTER":258.6592,"MEAN_ANOMALY":101.4015,"EPHEMERIS_TYPE":0,"CLASSIFICATION_TYPE":"U","NORAD_CAT_ID":46497,"ELEMENT_SET_NO":999,"REV_AT_EPOCH":30557,"BSTAR":0.00023163,"MEAN_MOTION_DOT":3.154e-5,"MEAN_MOTION_DDOT":0},{"OBJECT_NAME":"NETSAT-4","OBJECT_ID":"2020-068U","EPOCH":"2026-04-26T22:58:14.314368","MEAN_MOTION":15.42139737,"ECCENTRICITY":0.0007279,"INCLINATION":97.8628,"RA_OF_ASC_NODE":121.1508,"ARG_OF_PERICENTER":131.3566,"MEAN_ANOMALY":228.8307,"EPHEMERIS_TYPE":0,"CLASSIFICATION_TYPE":"U","NORAD_CAT_ID":46504,"ELEMENT_SET_NO":999,"REV_AT_EPOCH":30787,"BSTAR":0.00044489,"MEAN_MOTION_DOT":0.00018997,"MEAN_MOTION_DDOT":0}]
